{"type":"FeatureCollection","features":[{"type":"Feature","properties":{},"geometry":{"coordinates":[[[-119.00665074371042,35.17833329045858],[-118.95997676753657,35.313560710423886],[-118.82328869445615,35.35163774381404],[-118.84551439739627,35.38969683457751],[-118.80106299151647,35.4304545115385],[-118.93663977944988,35.45037298394311],[-119.00998459915147,35.49743341390722],[-119.07332785252987,35.534519327316545],[-119.11000026238088,35.4702865274014],[-119.18556765237656,35.42864349695043],[-119.18779022267017,35.35073135626472],[-119.24335448002023,35.289980225566],[-119.14556138708446,35.305399012556975],[-119.04221186841397,35.258226415614146],[-119.00665074371042,35.17833329045858]]],"type":"Polygon"}},{"type":"Feature","properties":{},"geometry":{"coordinates":[[[-119.05616064047109,35.26609786160934],[-119.04178515613995,35.25797164052162],[-119.00695225179894,35.17847233340987],[-118.96161418583142,35.31303340203135],[-118.94005095933494,35.318447289993216],[-118.92843999122098,35.3428053004406],[-118.95995547610087,35.34821719475619],[-118.95719095988326,35.32476303454685],[-118.98041289611075,35.320251838775874],[-118.98981225125019,35.3094239420531],[-119.0113754777471,35.26519498839738],[-119.0135870907212,35.271966292245736],[-119.05616064047109,35.26609786160934]]],"type":"Polygon"}},{"type":"Feature","properties":{},"geometry":{"coordinates":[[[-118.91125791233313,35.3282641284179],[-118.82389919985926,35.35171727261131],[-118.83440436148575,35.37155692308893],[-118.89356500854086,35.36614659282269],[-118.91125791233313,35.3282641284179]]],"type":"Polygon"}},{"type":"Feature","properties":{},"geometry":{"coordinates":[[[-118.96385589091562,35.46752989439396],[-118.94395137414969,35.437353533179945],[-118.90580105034755,35.43780400981784],[-118.88921395304232,35.42609079810482],[-118.85327524221469,35.42879399818028],[-118.84332298383171,35.413925275076366],[-118.8167836281431,35.41798065353551],[-118.80240814381196,35.43059608115928],[-118.93621072874038,35.450416332298275],[-118.96385589091562,35.46752989439396]]],"type":"Polygon"}},{"type":"Feature","properties":{},"geometry":{"coordinates":[[[-119.11590427649773,35.468880802147424],[-119.16345395543931,35.441407724297875],[-119.15294879381281,35.424739156159816],[-119.12253911541998,35.42924451482028],[-119.11645717974123,35.43735352529626],[-119.09268234027064,35.43510110429922],[-119.07277782350431,35.4197829705592],[-119.0722249202608,35.431497099642044],[-119.09157653378361,35.448614685057606],[-119.07167201701726,35.45131712896887],[-119.05619072619908,35.45897356053423],[-119.0722249202608,35.47518477504603],[-119.08383588837431,35.47518477504603],[-119.0860475013484,35.462576335040964],[-119.11424556676715,35.46122531351011],[-119.11590427649773,35.468880802147424]]],"type":"Polygon"}},{"type":"Feature","properties":{},"geometry":{"coordinates":[[[-119.23220277753288,35.301924203134774],[-119.213437128377,35.303359970473835],[-119.1841158015711,35.31675923701741],[-119.15596732783703,35.31819474107186],[-119.15068948901228,35.340680977527995],[-119.11609032338117,35.34929107098745],[-119.08970112925594,35.35742198328977],[-119.08911470271981,35.367943125165],[-119.13602882560932,35.352160898214166],[-119.14893020940386,35.346899470407976],[-119.18177009542657,35.34642114179512],[-119.19467147922109,35.334940405441316],[-119.20405430379881,35.332548380048635],[-119.23220277753288,35.301924203134774]]],"type":"Polygon"}}]}