{"type":"FeatureCollection","features":[{"type":"Feature","properties":{},"geometry":{"coordinates":[[[-115.54379338266638,32.66033789065591],[-115.36708808363696,32.671886297774094],[-115.3531104560919,32.789469054544156],[-115.41740754279847,32.81884049849097],[-115.44815832339737,32.875206455947776],[-115.46353371369668,32.981968575221714],[-115.47357992253501,33.03304273849824],[-115.49534670835152,33.05339428592313],[-115.50623010125976,33.07374113034881],[-115.53218280742573,33.0821591382315],[-115.53720591184474,33.058306023850136],[-115.52046223044758,33.03304273849824],[-115.52381096672714,33.00426183924435],[-115.555623961382,32.99513422671055],[-115.59896842344506,32.93860881810437],[-115.61621062368825,32.8850514705086],[-115.64724658412652,32.889395165088516],[-115.71276694505117,32.81987050903649],[-115.69552474480767,32.75609173771703],[-115.5782777831531,32.69662037746795],[-115.54379338266638,32.66033789065591]]],"type":"Polygon"}},{"type":"Feature","properties":{},"geometry":{"coordinates":[[[-115.57723989846795,32.696146236770474],[-115.54354244629126,32.66191446018264],[-115.45426957657928,32.66665672362721],[-115.45083465138674,32.68689567304233],[-115.45633053169426,32.704817769675145],[-115.47281817261839,32.71580050170503],[-115.498236619042,32.7204244054107],[-115.52640300562018,32.70886419667305],[-115.53670778119722,32.69383368570048],[-115.57723989846795,32.696146236770474]]],"type":"Polygon"}},{"type":"Feature","properties":{},"geometry":{"coordinates":[[[-115.40921176129555,32.688990846222325],[-115.38692005540847,32.691278746724564],[-115.3727838516751,32.74296965842083],[-115.36299724909016,32.747542632249335],[-115.40105625914184,32.74845719884787],[-115.39453185741856,32.72284578539002],[-115.42171686459811,32.72193095594342],[-115.40921176129555,32.688990846222325]]],"type":"Polygon"}},{"type":"Feature","properties":{},"geometry":{"coordinates":[[[-115.37720808594095,32.80284369654724],[-115.41827083024181,32.818577022882224],[-115.42491333299606,32.83075574944321],[-115.4285365163168,32.81959198054071],[-115.45269107178751,32.82872607764935],[-115.45993743842901,32.80030580242057],[-115.44000993016536,32.79269168535552],[-115.43638674684462,32.78304620114908],[-115.41102446360031,32.780000041471524],[-115.4055896886192,32.79370693863511],[-115.38324672480886,32.7921840543693],[-115.37720808594095,32.80284369654724]]],"type":"Polygon"}},{"type":"Feature","properties":{},"geometry":{"coordinates":[[[-115.69862292007535,32.834657873109805],[-115.71190792558475,32.81994234824269],[-115.70526542283005,32.79354978519825],[-115.69741519230176,32.78136595938345],[-115.66842972573673,32.776796594464656],[-115.66601427018956,32.79608787217292],[-115.63340562030376,32.79761068958449],[-115.6370288036245,32.83415048180831],[-115.69862292007535,32.834657873109805]]],"type":"Polygon"}},{"type":"Feature","properties":{},"geometry":{"coordinates":[[[-115.5230749768241,33.00197545493634],[-115.50611887185512,32.99994396472276],[-115.50208170400522,32.97217557765859],[-115.48997020045582,32.97014340152907],[-115.48997020045582,33.0006211333248],[-115.48189586475632,32.999266790923215],[-115.48431816546628,33.040564879382785],[-115.49642966901567,33.05207073516941],[-115.5069263054251,33.072371519223424],[-115.53195674609357,33.0811670714139],[-115.53680134751345,33.05951489964032],[-115.5190378089745,33.03447293546347],[-115.5230749768241,33.00197545493634]]],"type":"Polygon"}},{"type":"Feature","properties":{},"geometry":{"coordinates":[[[-115.59961776531121,32.82094708991889],[-115.56919324844314,32.81442956706809],[-115.55308615127765,32.799888754890645],[-115.53876873157506,32.805404515400326],[-115.56203453859207,32.827464134631654],[-115.53518937664929,32.82896800012074],[-115.53996184988365,32.840998007200994],[-115.58052787237428,32.84500764732229],[-115.58052787237428,32.83297818358875],[-115.58768658222579,32.832476920559145],[-115.60140744277409,32.84701239945669],[-115.59961776531121,32.82094708991889]]],"type":"Polygon"}}]}