{"type":"FeatureCollection","features":[{"type":"Feature","properties":{},"geometry":{"coordinates":[[[-116.58663485995235,31.752743045119644],[-116.53417831151941,31.76024273424194],[-116.51236010110937,31.76892582563704],[-116.51328853559494,31.772872416002784],[-116.56899460472698,31.774451005006654],[-116.57177990818369,31.78273815529093],[-116.55413965295867,31.793391971587255],[-116.57781473233985,31.793391971587255],[-116.58384955649566,31.84545961687749],[-116.55785339090058,31.844670932244995],[-116.57317255991202,31.865568796427368],[-116.56806617024142,31.871088196133456],[-116.54392687361747,31.86004906619479],[-116.52164444596465,31.87778987994639],[-116.52953613909193,31.893556624788374],[-116.54949748053087,31.914443403546272],[-116.56620930127065,31.921929962334445],[-116.59081281513738,31.921535948115775],[-116.60334668069214,31.917201680306633],[-116.61355946003299,31.908532532010227],[-116.62005850143157,31.898286121876026],[-116.62145115315991,31.88803857112154],[-116.63352080147189,31.880943444837655],[-116.65069683945447,31.87778987994639],[-116.65998118430976,31.86675155276184],[-116.64930418772613,31.861231893353676],[-116.6390914083853,31.861231893353676],[-116.63584188768583,31.856500493665095],[-116.62795019455888,31.862808972624904],[-116.62145115315991,31.858471939709474],[-116.61680898073247,31.854529005467725],[-116.61402367727578,31.845853956665067],[-116.60984572209074,31.83362863941663],[-116.60938150484796,31.81272353899118],[-116.61355946003299,31.792602842113396],[-116.61913006694601,31.781948934876183],[-116.61541632900412,31.775634929081193],[-116.61123837381908,31.776818838002086],[-116.60798885311961,31.77129380005971],[-116.61448789451856,31.750374596004846],[-116.58663485995235,31.752743045119644]]],"type":"Polygon"}},{"type":"Feature","properties":{},"geometry":{"coordinates":[[[-116.61484066579119,31.78362414037221],[-116.59925446493975,31.783336119377537],[-116.59315551678029,31.790536375094604],[-116.5958661604067,31.811845845154068],[-116.60975820899165,31.808678532191294],[-116.61213002216476,31.791400368097882],[-116.61484066579119,31.78362414037221]]],"type":"Polygon"}},{"type":"Feature","properties":{},"geometry":{"coordinates":[[[-116.65171690128228,31.862908463917265],[-116.64918834249875,31.86133358825664],[-116.63907410736512,31.861190416407908],[-116.63688268975272,31.857611047927364],[-116.63081414867224,31.86161993128701],[-116.63283699569905,31.863481139304966],[-116.63182557218565,31.866201298810537],[-116.63485984272589,31.86305163309771],[-116.63721983092387,31.86305163309771],[-116.64025410146411,31.865055978276473],[-116.64092838380638,31.86305163309771],[-116.64261408966206,31.865055978276473],[-116.6419398073198,31.866773953740733],[-116.64396265434611,31.867346605112942],[-116.64767120722864,31.86648762672037],[-116.65019976601216,31.866773953740733],[-116.65070547776887,31.86877821797721],[-116.65508831299368,31.867919252927166],[-116.65491974240811,31.865342309744207],[-116.65306546596683,31.86476964591928],[-116.65171690128228,31.862908463917265]]],"type":"Polygon"}},{"type":"Feature","properties":{},"geometry":{"coordinates":[[[-116.62152597337777,31.88773807885299],[-116.61322633120513,31.889617286260844],[-116.60713992694488,31.895724445487758],[-116.60160683216326,31.895607003938096],[-116.59884028477222,31.904179843336877],[-116.59648871948986,31.904884424764546],[-116.59303053525107,31.901244029328055],[-116.59150893418602,31.90206606668984],[-116.59496711842479,31.906293571437487],[-116.60243679638056,31.90511928404173],[-116.60105352268505,31.907702696533462],[-116.60105352268505,31.91545249884878],[-116.60354341533697,31.917331140496955],[-116.60547999851026,31.915335082471913],[-116.6099064743359,31.911929942354305],[-116.60879985537949,31.908407250989896],[-116.60935316485771,31.905354142719602],[-116.61170473014005,31.904649564888018],[-116.61405629542244,31.905354142719602],[-116.61571622385705,31.904532134724988],[-116.61848277124807,31.898190683423564],[-116.62014269968226,31.897368611452677],[-116.62152597337777,31.88773807885299]]],"type":"Polygon"}},{"type":"Feature","properties":{},"geometry":{"coordinates":[[[-116.57262000002427,31.87218886141639],[-116.55994976422433,31.875847161642596],[-116.5624838113844,31.881226751054896],[-116.5584293359283,31.88725151823897],[-116.57287340474028,31.885315028907726],[-116.57515404718433,31.88940312529597],[-116.5852902358242,31.88445435391317],[-116.57566085661634,31.878859770414792],[-116.57262000002427,31.87218886141639]]],"type":"Polygon"}},{"type":"Feature","properties":{},"geometry":{"coordinates":[[[-116.58240584964705,31.826885364726834],[-116.58437596812092,31.845057368320823],[-116.58409452262465,31.858444975562335],[-116.6029513708742,31.857488782355475],[-116.60435859835555,31.84601369042936],[-116.59844824293393,31.841471072115866],[-116.5931007785048,31.8264071057839],[-116.58240584964705,31.826885364726834]]],"type":"Polygon"}}]}