{"type":"FeatureCollection","features":[{"type":"Feature","properties":{},"geometry":{"coordinates":[[[-117.5864900167472,33.38897605112038],[-117.5794115208409,33.483488061922245],[-117.62542174423267,33.551354949902944],[-117.5687937769813,33.55430447616065],[-117.5687937769813,33.65158232196059],[-117.75283467054834,33.76052081739192],[-117.62896099218565,33.86050455193836],[-117.44492009861861,33.72814813125525],[-117.434302354759,33.85756552205227],[-117.27857544481783,33.81640848506342],[-117.2007119898469,33.88107492864414],[-117.13700552668922,33.910452580266764],[-117.25733995709825,33.9750477769815],[-117.32104642025627,33.99852478374538],[-117.26795770095788,34.03959393630623],[-117.14054477464221,34.01319461921662],[-117.06975981557792,34.086505771797334],[-117.33874266002218,34.212452560252245],[-117.39890987522685,34.14510903286644],[-117.64311798399856,34.15682481131813],[-117.71744219101618,34.11581247820048],[-118.10322021791649,34.17732351280026],[-118.41113478984587,34.32944362565715],[-118.59871493136623,34.28559105279645],[-118.6588821465709,34.148038129828024],[-118.4182132857525,34.11581247820048],[-118.5704009477407,34.04545933582172],[-118.49607674072308,34.01612828221303],[-118.38989930212664,33.83698948094944],[-118.4217525337055,33.76934761088964],[-118.40405629393956,33.73992143085799],[-118.29433960738982,33.70459668626917],[-118.26602562376429,33.76934761088964],[-118.19877991265332,33.76934761088964],[-118.11737720972941,33.74875034531868],[-117.9687287956942,33.63979691394982],[-117.87316910095771,33.604431011368604],[-117.71036369510989,33.46577490217234],[-117.66081422376482,33.46577490217234],[-117.5864900167472,33.38897605112038]]],"type":"Polygon"}},{"type":"Feature","properties":{},"geometry":{"coordinates":[[[-117.72618785484441,33.481230138313634],[-117.70384788341914,33.55859426214947],[-117.74337244824832,33.5729133564776],[-117.72962477352499,33.63731988610404],[-117.77946009439694,33.653056385026034],[-117.8344507932899,33.63016598120737],[-117.86881998009807,33.602975724130886],[-117.72618785484441,33.481230138313634]]],"type":"Polygon"}},{"type":"Feature","properties":{},"geometry":{"coordinates":[[[-117.61792382622306,33.68452023330735],[-117.7536821141152,33.758844780460535],[-117.62823458226548,33.86164938039745],[-117.60761307018063,33.84737835225624],[-117.6419822569888,33.88590465503171],[-117.64885609435062,33.92156165172524],[-117.69353603720117,33.97288151835667],[-117.74852673609416,33.951502001191855],[-117.75883749213656,33.96575560968043],[-117.7210313866475,33.98998126279493],[-117.77602208554049,34.02986728621323],[-117.82585740641244,33.97288151835667],[-117.89631423936918,33.96147977787925],[-117.92552804815597,33.985706649178354],[-117.98051874704893,33.98713154427385],[-118.00285871847422,34.041259851158145],[-118.07503401077145,34.014200011474585],[-117.98911104375122,33.96147977787925],[-117.95817877562368,33.96147977787925],[-117.82929432509333,33.905874410540804],[-117.69181757786075,33.874491266797776],[-117.7863328415829,33.83738721390587],[-117.769148248179,33.75598733419082],[-117.70556525258405,33.69595896716872],[-117.69353603720117,33.66735927822555],[-117.61792382622306,33.68452023330735]]],"type":"Polygon"}},{"type":"Feature","properties":{},"geometry":{"coordinates":[[[-118.410132435196,34.09250736337202],[-118.22797574511284,34.11385138142657],[-118.25890801324007,34.15652326160834],[-118.15236353413471,34.13092271890868],[-118.17298504621954,34.18495920924582],[-118.22282036709146,34.20059489619145],[-118.2898402813673,34.25032551743179],[-118.322491008835,34.26878941109679],[-118.38091862640891,34.236119764826995],[-118.29327720004821,34.18353763941444],[-118.30530641543109,34.163633146661],[-118.3551417363027,34.14514620032871],[-118.45996775606761,34.135190014705685],[-118.50980307693956,34.15083492252607],[-118.59400758461932,34.139457095047135],[-118.4204431912384,34.11811953891525],[-118.46340467474852,34.09393046540322],[-118.410132435196,34.09250736337202]]],"type":"Polygon"}},{"type":"Feature","properties":{},"geometry":{"coordinates":[[[-117.50956668438603,34.021391801735035],[-117.41483637557883,34.00638021532656],[-117.37025740672844,33.96248497833635],[-117.33682318009073,34.04678997724494],[-117.3869745200473,34.079103928435956],[-117.44687750944018,34.03524629462994],[-117.50956668438603,34.021391801735035]]],"type":"Polygon"}},{"type":"Feature","properties":{},"geometry":{"coordinates":[[[-118.41325035009956,33.75666530358558],[-118.40372905235232,33.73743844481341],[-118.29491422095559,33.703498180760036],[-118.28267255242336,33.73517617804849],[-118.31803737262726,33.7544035439424],[-118.35068182204645,33.78154072096828],[-118.41325035009956,33.75666530358558]]],"type":"Polygon"}}]}