{"type":"FeatureCollection","features":[{"type":"Feature","properties":{},"geometry":{"coordinates":[[[-115.57440963707465,32.65906967059995],[-115.57389794862151,32.6000321392829],[-115.58771353685607,32.578907072107995],[-115.57747976779353,32.57631998703785],[-115.51710053032377,32.61167035446063],[-115.50686676126121,32.61037729411876],[-115.50686676126121,32.590979148763864],[-115.49202779612035,32.59227248912059],[-115.4925394845735,32.60132534897693],[-115.47974727324522,32.60175641472655],[-115.47770051943263,32.59313470565566],[-115.45365116213551,32.600463211255075],[-115.44751090069813,32.60563591313277],[-115.43676544318205,32.602187478402044],[-115.43011349329153,32.60563591313277],[-115.42192647804157,32.59744566389347],[-115.40657582444757,32.59227248912059],[-115.34261476780577,32.56985194781784],[-115.3472199638841,32.58623674110679],[-115.35745373294664,32.59227248912059],[-115.353871913775,32.59615239819881],[-115.34466152161835,32.598307830653],[-115.34670827543096,32.63149494147379],[-115.34824334079038,32.63882030809239],[-115.35029009460297,32.65217678539801],[-115.37485114035324,32.65260760629283],[-115.37280438654065,32.66337745395968],[-115.3820147786969,32.66725428146475],[-115.3820147786969,32.673715286885454],[-115.57440963707465,32.65906967059995]]],"type":"Polygon"}},{"type":"Feature","properties":{},"geometry":{"coordinates":[[[-115.552757874884,32.62642380327196],[-115.5387601385235,32.627771101388745],[-115.53076143203191,32.633833691912415],[-115.52996156138272,32.64764139244235],[-115.54395929774292,32.64326357181878],[-115.55755709877882,32.6456208864752],[-115.552757874884,32.62642380327196]]],"type":"Polygon"}},{"type":"Feature","properties":{},"geometry":{"coordinates":[[[-115.5735545117623,32.6129497066665],[-115.5735545117623,32.59947358229917],[-115.58275302422766,32.58666938633655],[-115.56155645202477,32.59913665321308],[-115.55595735748044,32.613623459659806],[-115.5735545117623,32.6129497066665]]],"type":"Polygon"}},{"type":"Feature","properties":{},"geometry":{"coordinates":[[[-115.491167834898,32.61463407964446],[-115.48716848165235,32.62406598276435],[-115.48076951645884,32.62945519551245],[-115.4775700338624,32.6405694218478],[-115.49036796424912,32.64124296694814],[-115.49436731749473,32.62440281806819],[-115.491167834898,32.61463407964446]]],"type":"Polygon"}},{"type":"Feature","properties":{},"geometry":{"coordinates":[[[-115.40878115803399,32.645957640639764],[-115.39758296894567,32.647304644617904],[-115.39918271024405,32.65403936016739],[-115.3951833569984,32.6611102655375],[-115.41717979985016,32.66447716674544],[-115.41038089933238,32.65538624240595],[-115.40878115803399,32.645957640639764]]],"type":"Polygon"}},{"type":"Feature","properties":{},"geometry":{"coordinates":[[[-115.39798290427025,32.606211897925306],[-115.39118400375244,32.61126530200471],[-115.3811856206379,32.604864275349016],[-115.38158555596249,32.6206975600103],[-115.37958587933953,32.63316009102685],[-115.39838283959486,32.62844474284125],[-115.41158070530615,32.631812874042524],[-115.39958264556863,32.614970950437964],[-115.39798290427025,32.606211897925306]]],"type":"Polygon"}},{"type":"Feature","properties":{},"geometry":{"coordinates":[[[-115.4575732676333,32.656059675915955],[-115.44557520789576,32.64865162830722],[-115.44077598400064,32.63585446414231],[-115.43117753621067,32.64157973759647],[-115.44517527257116,32.656733104353066],[-115.4575732676333,32.656059675915955]]],"type":"Polygon"}}]}