{"type":"FeatureCollection","features":[{"type":"Feature","properties":{},"geometry":{"coordinates":[[[-117.12460681003671,32.535256683659924],[-116.90610695481914,32.555721977066],[-116.95466247820085,32.60293176702801],[-116.89116679377855,32.637536476488776],[-116.92478215611962,32.67684376799957],[-116.98080776002178,32.68941845033483],[-116.87435911260783,32.76797008192179],[-116.87622663273794,32.848021396833914],[-116.94158983729037,32.90918843291004],[-117.02936328340348,32.833899934084855],[-117.08912392756554,32.84645245636068],[-117.16755977302806,32.85272805182464],[-117.01442312236287,32.949942998317965],[-117.00321800158251,32.990678782840064],[-117.05550856522444,33.06583392647066],[-116.99014536067202,33.13936120258728],[-117.09659400808563,33.20813946606812],[-117.13767945094719,33.18313543354813],[-117.16942729315818,33.22220109654319],[-117.193705054849,33.20345175380699],[-117.2217178568001,33.264372427009974],[-117.25159817888131,33.301840969229374],[-117.37485450746564,33.22376336044205],[-117.44021771201768,33.264372427009974],[-117.40054858421593,33.20907279467485],[-117.34765641381269,33.16111816643763],[-117.29917192427625,33.04789050334347],[-117.26978738516326,32.98629257639389],[-117.2521566616955,32.86790401737714],[-117.26537970429617,32.850625788612646],[-117.28741810863099,32.84568853370557],[-117.2521566616955,32.79012549391115],[-117.25803356951799,32.70486138313301],[-117.2429523621316,32.66511979925086],[-117.21972889924638,32.682496268208055],[-117.17844274300612,32.682496268208055],[-117.14661799757056,32.64339446098333],[-117.13371607374572,32.60644927307857],[-117.13543633025546,32.56803910049695],[-117.12460681003671,32.535256683659924]]],"type":"Polygon"},"id":0},{"type":"Feature","properties":{},"geometry":{"coordinates":[[[-117.0655571982033,32.540568557945036],[-117.07044148790058,32.544171305998006],[-117.06515017406183,32.54640150615798],[-117.05334647395959,32.5452006360328],[-117.05680617916174,32.555150217923995],[-117.07675036209335,32.5620113559375],[-117.10463151578294,32.56561324337903],[-117.12030194522882,32.55823779495016],[-117.12274409007762,32.578304455958715],[-117.1353618384628,32.579847859317695],[-117.13556535053354,32.56784291075432],[-117.12518623492642,32.53490680466585],[-117.0655571982033,32.540568557945036]]],"type":"Polygon"}},{"type":"Feature","properties":{},"geometry":{"coordinates":[[[-116.92911836472106,32.55491630289988],[-116.90750837704019,32.55670960868922],[-116.94570015102465,32.59471675385029],[-116.9667965595114,32.58368408093868],[-116.98825669917895,32.61065043911678],[-116.9966225163374,32.59349096837042],[-117.02099250545118,32.594103863206286],[-117.02899458841249,32.58736179529414],[-117.03554174966689,32.57265005591823],[-117.0129904164572,32.55241747331854],[-116.99495370844664,32.555836039114695],[-116.96221790217412,32.56779175210427],[-116.96112670863167,32.57729387460424],[-116.95166969793075,32.576987370237916],[-116.94912357966533,32.56779175210427],[-116.92911836472106,32.55491630289988]]],"type":"Polygon"}},{"type":"Feature","properties":{},"geometry":{"coordinates":[[[-116.95697559205226,32.683561779747464],[-116.9802543876236,32.68876600936089],[-116.89732367840024,32.751499005826034],[-116.92569471050301,32.743545069639566],[-116.94388126954321,32.753640328842195],[-116.95952171031769,32.736814261287606],[-116.95442947378658,32.729776963538484],[-116.97734453817709,32.71294639017218],[-117.01262646271533,32.689072131068826],[-117.04027003245645,32.66764107710796],[-117.05190943024226,32.64896125221314],[-117.01953735515055,32.64007931084822],[-116.97516215109248,32.65447373766361],[-116.95697559205226,32.683561779747464]]],"type":"Polygon"}},{"type":"Feature","properties":{},"geometry":{"coordinates":[[[-117.08240102421047,32.840930936099056],[-117.07439893823282,32.8262609507358],[-117.10604355096262,32.79966542562869],[-117.09984194530449,32.79267882338614],[-117.07147091320175,32.81285705362848],[-117.04637346172635,32.78044736409301],[-117.01254646191137,32.81652533064097],[-117.0001796017642,32.807660068633936],[-117.0001796017642,32.83700376041034],[-116.9703536449382,32.84769956981731],[-116.97690080619257,32.85381088220487],[-116.98672154807431,32.8489218659669],[-117.02273093497391,32.8391430253983],[-117.02964182740939,32.833641954135686],[-117.08747508515707,32.84617167595562],[-117.16640475139175,32.85381088220487],[-117.18204519216653,32.845866094026675],[-117.15913012777571,32.832419447567034],[-117.12566685914156,32.84219902881179],[-117.08240102421047,32.840930936099056]]],"type":"Polygon"}},{"type":"Feature","properties":{},"geometry":{"coordinates":[[[-117.1248565136071,33.01195578394261],[-117.0914192689312,33.02355737884966],[-117.08334820987173,33.04482300404233],[-117.04299291457349,33.041923448289666],[-117.05336999050724,33.0660834960166],[-117.04991096519583,33.07767796381138],[-117.09487829424259,33.0660834960166],[-117.1248565136071,33.1008623150847],[-117.12600952204423,33.13176527203099],[-117.17212985952813,33.12017793730449],[-117.20441409576688,33.145281896345494],[-117.24592239950226,33.0931348772456],[-117.20210807889264,33.07671181651973],[-117.20441409576688,33.04288997747945],[-117.1248565136071,33.01195578394261]]],"type":"Polygon"}},{"type":"Feature","properties":{},"geometry":{"coordinates":[[[-117.22648735356691,32.905841843318655],[-117.17890241585192,32.90550378094336],[-117.13791021744385,32.92361546759183],[-117.11633537617666,32.95258645642727],[-117.16523834971608,32.93930926463902],[-117.14869763807755,32.953189917766736],[-117.15588925183356,32.97189517550089],[-117.18034073860312,32.95741403177652],[-117.21198383912869,32.97310183033001],[-117.19903893436816,32.98396098189572],[-117.20982635500188,32.988786842792564],[-117.2177371301332,32.982754475449454],[-117.2601676512925,32.97792828478602],[-117.2601676512925,32.955603721922714],[-117.20335390262177,32.95379337498608],[-117.21629880738202,32.941723447815335],[-117.24362693965398,32.93266992107252],[-117.2608868126681,32.941723447815335],[-117.25513352166331,32.88134910167804],[-117.23643532589824,32.88557664596213],[-117.24362693965398,32.91274890030698],[-117.22648735356691,32.905841843318655]]],"type":"Polygon"}}]}