{"type":"FeatureCollection","features":[{"type":"Feature","properties":{},"geometry":{"coordinates":[[[-114.97028940786674,32.297769626564985],[-114.87898421692043,32.35718659699354],[-114.85484606299214,32.374029086908195],[-114.72680889867627,32.381119722793514],[-114.70686868456134,32.42808112825628],[-114.68273053063307,32.428966957644505],[-114.6785325908193,32.45288106171455],[-114.69475539014621,32.461103147746314],[-114.69406569403831,32.493685624668245],[-114.7851055802768,32.4948490664121],[-114.7851055802768,32.483213971887594],[-114.81338312069965,32.49310389815365],[-114.82372856231744,32.473904813044285],[-114.88097333927051,32.44131517674025],[-114.9041253151251,32.43754495377553],[-114.94767048240153,32.3307285806998],[-114.97028940786674,32.297769626564985]]],"type":"Polygon"}},{"type":"Feature","properties":{},"geometry":{"coordinates":[[[-114.97047108528146,32.29960981692159],[-114.8565767083586,32.37487426932988],[-114.86357580414735,32.38669584811514],[-114.82349007372193,32.414631611824134],[-114.81649097793367,32.423762582489005],[-114.82539891802794,32.43074446586206],[-114.81458213362765,32.43450371764156],[-114.81203700788629,32.4511499485683],[-114.81903610367503,32.45490834940969],[-114.81140072645096,32.465108932781206],[-114.78594946903836,32.47369800168201],[-114.78594946903836,32.48335972479795],[-114.81267328932164,32.4908736812869],[-114.82221751085125,32.472624412875774],[-114.88011912146568,32.439873805444094],[-114.90302525313741,32.437725808707484],[-114.94756495360973,32.32864780630146],[-114.97047108528146,32.29960981692159]]],"type":"Polygon"}},{"type":"Feature","properties":{},"geometry":{"coordinates":[[[-114.75474825647247,32.420886445739285],[-114.74924576083728,32.41981455422811],[-114.74078038293649,32.42624571224897],[-114.7441665340968,32.4344626357567],[-114.75347844978735,32.43910665262038],[-114.75771113873776,32.42838932969374],[-114.75474825647247,32.420886445739285]]],"type":"Polygon"}},{"type":"Feature","properties":{},"geometry":{"coordinates":[[[-114.7657532477432,32.380145616872895],[-114.72638924050577,32.38086052668042],[-114.72131001376528,32.39444273815914],[-114.74585960967696,32.40552145051559],[-114.7496690297323,32.39480013719604],[-114.7657532477432,32.380145616872895]]],"type":"Polygon"}}]}