{"type":"FeatureCollection","features":[{"type":"Feature","properties":{},"geometry":{"coordinates":[[[-116.67702681813367,32.54300449472714],[-116.67137451732215,32.53544618415829],[-116.67059488962394,32.53133813986386],[-116.66474768188789,32.53100948820375],[-116.66026482262333,32.53232408762959],[-116.65285835949088,32.53018785379295],[-116.64779077945269,32.538239546955424],[-116.64506208250936,32.53676071865033],[-116.6448671755848,32.526901241000274],[-116.63785052630115,32.52706557449554],[-116.63414729473507,32.534460270662876],[-116.63044406316871,32.53215976375347],[-116.62420704158353,32.54169005163125],[-116.61485150920562,32.541361437850696],[-116.61446169535654,32.54661911402057],[-116.60744504607288,32.54629051828013],[-116.604521442205,32.55532646287864],[-116.59906404831773,32.55417648408478],[-116.592632119808,32.55483361662844],[-116.59185249210981,32.55121932809783],[-116.58561547052436,32.54957642156124],[-116.57664975199553,32.55121932809783],[-116.57587012429735,32.55302649055676],[-116.56729421961765,32.54875495701681],[-116.56105719803247,32.557954930502405],[-116.5696331027122,32.56173321783041],[-116.56943819578764,32.56583987142926],[-116.57314142735402,32.567975257010005],[-116.57781919354282,32.570931860817794],[-116.58678491207164,32.57060335409629],[-116.58717472592072,32.57980108746776],[-116.58990342286435,32.57947261323487],[-116.5908779574871,32.575366583792146],[-116.59808951369499,32.578979899629275],[-116.5998436760159,32.57700901813152],[-116.60354690758227,32.57421686185563],[-116.60588579067652,32.5779944642954],[-116.6610444503215,32.573559871273986],[-116.66201898494424,32.569125058960196],[-116.66669675113303,32.56994633704373],[-116.68034023585093,32.554340767671775],[-116.67702681813367,32.54300449472714]]],"type":"Polygon"}},{"type":"Feature","properties":{},"geometry":{"coordinates":[[[-116.67280541439922,32.56327904836486],[-116.66964533464284,32.561148377152534],[-116.66174513525237,32.560882039693354],[-116.65874305948381,32.56634179958424],[-116.65826904752035,32.56927128986378],[-116.66237715120317,32.56820603174067],[-116.66427319905699,32.56554283108591],[-116.66680126286212,32.56993706976634],[-116.67280541439922,32.56327904836486]]],"type":"Polygon"}},{"type":"Feature","properties":{},"geometry":{"coordinates":[[[-116.64926282021466,32.55222564191391],[-116.63899256100689,32.55195927797193],[-116.6333044174454,32.55475605993695],[-116.63393643339668,32.55715323225451],[-116.6396245769582,32.559550340538564],[-116.64610274045828,32.55968351134345],[-116.64910481622684,32.56394487274193],[-116.65210689199542,32.56248005258978],[-116.65479295978834,32.55395698826854],[-116.6528969119345,32.55182609570453],[-116.64973683217812,32.55475605993695],[-116.64926282021466,32.55222564191391]]],"type":"Polygon"}},{"type":"Feature","properties":{},"geometry":{"coordinates":[[[-116.62224413829856,32.56034936240317],[-116.61671399872489,32.55528877043007],[-116.60928781129786,32.55422334628186],[-116.60423168368766,32.55688688293688],[-116.60344166374855,32.56141471382121],[-116.60833978737097,32.56833918969791],[-116.61260589504158,32.56967075839836],[-116.62019008645692,32.567273920505286],[-116.62445619412802,32.563545378708596],[-116.62224413829856,32.56034936240317]]],"type":"Polygon"}},{"type":"Feature","properties":{},"geometry":{"coordinates":[[[-116.57326290207608,32.56807287358578],[-116.57895104563708,32.56248005258978],[-116.58211112539345,32.559550340538564],[-116.5775290097472,32.55728640661688],[-116.57136685422225,32.5570200576945],[-116.56978681434406,32.56168104969922],[-116.56947080636843,32.56580915470933],[-116.57326290207608,32.56807287358578]]],"type":"Polygon"}},{"type":"Feature","properties":{},"geometry":{"coordinates":[[[-116.63093435762812,32.5405048807294],[-116.62888030578648,32.54343521448084],[-116.62414018615239,32.54543311448029],[-116.63109236161594,32.5510269979502],[-116.63425244137233,32.548363287389805],[-116.63472645333579,32.54303562914596],[-116.63093435762812,32.5405048807294]]],"type":"Polygon"}}]}