{"type":"FeatureCollection","features":[{"type":"Feature","properties":{},"geometry":{"coordinates":[[[-117.03165382910566,32.285346908624575],[-117.01205739436793,32.2910813873855],[-117.00452030408424,32.29681550346558],[-116.99472208671537,32.298726794890584],[-116.98793870545981,32.30573451862482],[-116.98040161517613,32.3101936970334],[-116.97587936100604,32.31847444608552],[-116.97060339780725,32.323569915379096],[-116.96382001655198,32.331212581717864],[-116.95779034432479,32.35795683246137],[-116.95326809015472,32.367506434498665],[-116.93894761861546,32.37578194032736],[-116.94422358181424,32.38723908200673],[-116.9283956922182,32.40696741975998],[-116.90804554845207,32.413966761452826],[-116.8876954046859,32.425419058638454],[-116.86056187966452,32.43623378207492],[-116.83342835464308,32.4502273810223],[-116.83568948172828,32.46103912839877],[-116.84624140812556,32.46358288038283],[-116.85227108035241,32.4877449405719],[-116.84774882618206,32.50427313926724],[-116.84021173589838,32.51507839618189],[-116.85679333452282,32.53350789562131],[-116.85528591646602,32.54367427704581],[-116.85679333452282,32.55892169098104],[-117.12511374862427,32.53477875623865],[-117.12480007403434,32.510173004879974],[-117.12370741844613,32.495736076030184],[-117.12334319991675,32.48559812412009],[-117.1175157034466,32.463782294588356],[-117.112416644035,32.45056732066125],[-117.10294696227085,32.437043015264905],[-117.09857633991832,32.42290179916297],[-117.09203106223856,32.40381608506736],[-117.09057316891413,32.396738201535484],[-117.08103717580516,32.38178942090849],[-117.07635870899853,32.37551415406489],[-117.07415707756013,32.36807623646024],[-117.05595065805771,32.33072287128128],[-117.04450662294138,32.30258780829044],[-117.04086533904062,32.29379380904176],[-117.03165382910566,32.285346908624575]]],"type":"Polygon"}},{"type":"Feature","properties":{},"geometry":{"coordinates":[[[-117.03623853134383,32.54291498594229],[-117.02084443288494,32.52993699613117],[-116.971583317817,32.52993699613117],[-116.93540718643908,32.53512841709933],[-116.9046189895216,32.554593573166215],[-117.03623853134383,32.54291498594229]]],"type":"Polygon"}},{"type":"Feature","properties":{},"geometry":{"coordinates":[[[-116.90000075998383,32.42084788818285],[-116.86151551383705,32.43773937082261],[-116.89692194029199,32.455277176668176],[-116.9254010224406,32.455926659487346],[-116.92463131751794,32.44033777962683],[-116.93694659628471,32.42214734532318],[-116.91693426828836,32.42669529790081],[-116.90000075998383,32.42084788818285]]],"type":"Polygon"}},{"type":"Feature","properties":{},"geometry":{"coordinates":[[[-116.89461282552341,32.470214096799054],[-116.85997610399113,32.47281156915287],[-116.86074580891407,32.507870110127],[-116.87537020244972,32.523447298008406],[-116.89692194029199,32.51565904152133],[-116.91539485844244,32.485797806795034],[-116.89461282552341,32.470214096799054]]],"type":"Polygon"}},{"type":"Feature","properties":{},"geometry":{"coordinates":[[[-117.01699590827013,32.412400960526],[-116.99852299011968,32.444235252397945],[-116.99390476058224,32.47670763717478],[-117.02469295749972,32.49488705823761],[-117.04547499041905,32.48320070916044],[-117.0524023347254,32.44358568530683],[-117.01699590827013,32.412400960526]]],"type":"Polygon"}},{"type":"Feature","properties":{},"geometry":{"coordinates":[[[-117.10628167933108,32.44618392558564],[-117.09011787594923,32.39290503279905],[-117.0770328922595,32.37405496774154],[-117.07087525287582,32.36235294932722],[-117.07241466272174,32.43124302115534],[-117.10628167933108,32.44618392558564]]],"type":"Polygon"}},{"type":"Feature","properties":{},"geometry":{"coordinates":[[[-117.02007472796197,32.322034404546685],[-117.00775944919492,32.317481182269276],[-116.99544417042816,32.333091276954036],[-117.02546266242268,32.34219592258306],[-117.04008705595834,32.32528656601417],[-117.02007472796197,32.322034404546685]]],"type":"Polygon"}}]}