{
  "type": "FeatureCollection",
  "features": [
    {
      "type": "Feature",
      "properties": {
        "name": "Baja California",
        "country": "Mexico",
        "type": "state"
      },
      "geometry": {
        "type": "Polygon",
        "coordinates": [[
          [-117.12, 32.72],
          [-117.10, 32.55],
          [-117.08, 32.35],
          [-117.00, 32.10],
          [-116.90, 31.85],
          [-116.75, 31.50],
          [-116.60, 31.20],
          [-116.40, 30.95],
          [-116.20, 30.75],
          [-116.00, 30.55],
          [-115.80, 30.40],
          [-115.50, 30.30],
          [-115.20, 30.50],
          [-115.00, 30.80],
          [-114.80, 31.10],
          [-114.70, 31.50],
          [-114.72, 32.00],
          [-114.75, 32.40],
          [-114.78, 32.72],
          [-115.00, 32.72],
          [-115.50, 32.72],
          [-116.00, 32.72],
          [-116.50, 32.72],
          [-117.00, 32.72],
          [-117.12, 32.72]
        ]]
      }
    },
    {
      "type": "Feature",
      "properties": {
        "name": "Southern California",
        "country": "USA",
        "type": "state"
      },
      "geometry": {
        "type": "Polygon",
        "coordinates": [[
          [-117.12, 32.72],
          [-117.00, 32.72],
          [-116.50, 32.72],
          [-116.00, 32.72],
          [-115.50, 32.72],
          [-115.00, 32.72],
          [-114.78, 32.72],
          [-114.60, 33.00],
          [-114.55, 33.30],
          [-114.60, 33.50],
          [-115.00, 33.60],
          [-115.50, 33.65],
          [-116.00, 33.70],
          [-116.50, 33.65],
          [-117.00, 33.50],
          [-117.30, 33.35],
          [-117.50, 33.20],
          [-117.60, 33.00],
          [-117.50, 32.80],
          [-117.30, 32.72],
          [-117.12, 32.72]
        ]]
      }
    },
    {
      "type": "Feature",
      "properties": {
        "name": "Pacific Ocean",
        "type": "water"
      },
      "geometry": {
        "type": "Polygon",
        "coordinates": [[
          [-118.50, 34.00],
          [-118.50, 30.00],
          [-117.12, 30.00],
          [-117.12, 32.72],
          [-117.30, 32.72],
          [-117.50, 32.80],
          [-117.60, 33.00],
          [-117.50, 33.20],
          [-117.30, 33.35],
          [-117.12, 33.50],
          [-117.20, 33.80],
          [-117.40, 34.00],
          [-118.50, 34.00]
        ]]
      }
    }
  ]
}
